[
    {
        "Altitude(m)": 607897.6133475312,
        "Argument of Periapsis(deg)": 0.0,
        "Eccentricity": 0.0,
        "Inclination(deg)": 60.0,
        "Latitude(deg)": -14.292927260047042,
        "Longitude(deg)": 41.61877947106502,
        "Mean Anomaly(deg)": -16.363600000000062,
        "RAAN(deg)": 150.0,
        "Satellite Name": "Test1 681",
        "Satellite Number": 681,
        "Semi-Major Axis(m)": 6980739.136638005,
        "Time(s)": 0
    },
    {
        "Altitude(m)": 607750.8145946317,
        "Argument of Periapsis(deg)": 0.00010418945913296404,
        "Eccentricity": 0.0,
        "Inclination(deg)": 60.0,
        "Latitude(deg)": -13.758768175328719,
        "Longitude(deg)": 41.9058474415706,
        "Mean Anomaly(deg)": -15.74349385453821,
        "RAAN(deg)": 149.99957995086027,
        "Satellite Name": "Test1 681",
        "Satellite Number": 681,
        "Semi-Major Axis(m)": 6980739.136638005,
        "Time(s)": 10
    },
    {
        "Altitude(m)": 607606.54013285,
        "Argument of Periapsis(deg)": 0.0002083789182659281,
        "Eccentricity": 0.0,
        "Inclination(deg)": 60.0,
        "Latitude(deg)": -13.224134346173827,
        "Longitude(deg)": 42.191439015893046,
        "Mean Anomaly(deg)": -15.123387709076383,
        "RAAN(deg)": 149.99915990172053,
        "Satellite Name": "Test1 681",
        "Satellite Number": 681,
        "Semi-Major Axis(m)": 6980739.136638005,
        "Time(s)": 20
    },
    {
        "Altitude(m)": 607464.8343343397,
        "Argument of Periapsis(deg)": 0.00031256837739889213,
        "Eccentricity": 0.0,
        "Inclination(deg)": 60.0,
        "Latitude(deg)": -12.68904607699708,
        "Longitude(deg)": 42.4756188732919,
        "Mean Anomaly(deg)": -14.503281563614529,
        "RAAN(deg)": 149.99873985258077,
        "Satellite Name": "Test1 681",
        "Satellite Number": 681,
        "Semi-Major Axis(m)": 6980739.136638005,
        "Time(s)": 30
    },
    {
        "Altitude(m)": 607325.7402941476,
        "Argument of Periapsis(deg)": 0.0004167578365318562,
        "Eccentricity": 0.0,
        "Inclination(deg)": 60.0,
        "Latitude(deg)": -12.153523399668012,
        "Longitude(deg)": 42.75845135037435,
        "Mean Anomaly(deg)": -13.883175418152701,
        "RAAN(deg)": 149.99831980344103,
        "Satellite Name": "Test1 681",
        "Satellite Number": 681,
        "Semi-Major Axis(m)": 6980739.136638005,
        "Time(s)": 40
    },
    {
        "Altitude(m)": 607189.2998119168,
        "Argument of Periapsis(deg)": 0.0005209472956648203,
        "Eccentricity": 0.0,
        "Inclination(deg)": 60.0,
        "Latitude(deg)": -11.61758608745365,
        "Longitude(deg)": 43.039999472629155,
        "Mean Anomaly(deg)": -13.263069272690847,
        "RAAN(deg)": 149.9978997543013,
        "Satellite Name": "Test1 681",
        "Satellite Number": 681,
        "Semi-Major Axis(m)": 6980739.136638005,
        "Time(s)": 50
    },
    {
        "Altitude(m)": 607055.553374201,
        "Argument of Periapsis(deg)": 0.0006251367547977843,
        "Eccentricity": 0.0,
        "Inclination(deg)": 60.0,
        "Latitude(deg)": -11.08125366860397,
        "Longitude(deg)": 43.3203254981571,
        "Mean Anomaly(deg)": -12.642963127229121,
        "RAAN(deg)": 149.99747970516157,
        "Satellite Name": "Test1 681",
        "Satellite Number": 681,
        "Semi-Major Axis(m)": 6980739.136638005,
        "Time(s)": 60
    },
    {
        "Altitude(m)": 606924.5401373905,
        "Argument of Periapsis(deg)": 0.0007293262139307483,
        "Eccentricity": 0.0,
        "Inclination(deg)": 60.0,
        "Latitude(deg)": -10.54454543960013,
        "Longitude(deg)": 43.5994914607544,
        "Mean Anomaly(deg)": -12.02285698176727,
        "RAAN(deg)": 149.9970596560218,
        "Satellite Name": "Test1 681",
        "Satellite Number": 681,
        "Semi-Major Axis(m)": 6980739.136638005,
        "Time(s)": 70
    },
    {
        "Altitude(m)": 606796.2979113274,
        "Argument of Periapsis(deg)": 0.0008335156730637124,
        "Eccentricity": 0.0,
        "Inclination(deg)": 60.0,
        "Latitude(deg)": -10.007480478087977,
        "Longitude(deg)": 43.877558199504016,
        "Mean Anomaly(deg)": -11.402750836305442,
        "RAAN(deg)": 149.99663960688207,
        "Satellite Name": "Test1 681",
        "Satellite Number": 681,
        "Semi-Major Axis(m)": 6980739.136638005,
        "Time(s)": 80
    },
    {
        "Altitude(m)": 606670.8631435322,
        "Argument of Periapsis(deg)": 0.0009377051321966765,
        "Eccentricity": 0.0,
        "Inclination(deg)": 60.0,
        "Latitude(deg)": -9.47007765550801,
        "Longitude(deg)": 44.15458590065036,
        "Mean Anomaly(deg)": -10.782644690843588,
        "RAAN(deg)": 149.99621955774234,
        "Satellite Name": "Test1 681",
        "Satellite Number": 681,
        "Semi-Major Axis(m)": 6980739.136638005,
        "Time(s)": 90
    },
    {
        "Altitude(m)": 606548.2709041358,
        "Argument of Periapsis(deg)": 0.0010418945913296407,
        "Eccentricity": 0.0,
        "Inclination(deg)": 60.0,
        "Latitude(deg)": -8.932355649443231,
        "Longitude(deg)": 44.43063463891427,
        "Mean Anomaly(deg)": -10.16253854538176,
        "RAAN(deg)": 149.9957995086026,
        "Satellite Name": "Test1 681",
        "Satellite Number": 681,
        "Semi-Major Axis(m)": 6980739.136638005,
        "Time(s)": 100
    },
    {
        "Altitude(m)": 606428.5548714546,
        "Argument of Periapsis(deg)": 0.0011460840504626045,
        "Eccentricity": 0.0,
        "Inclination(deg)": 60.0,
        "Latitude(deg)": -8.394332955703302,
        "Longitude(deg)": 44.70576340540266,
        "Mean Anomaly(deg)": -9.542432399919907,
        "RAAN(deg)": 149.99537945946284,
        "Satellite Name": "Test1 681",
        "Satellite Number": 681,
        "Semi-Major Axis(m)": 6980739.136638005,
        "Time(s)": 110
    },
    {
        "Altitude(m)": 606311.7473182558,
        "Argument of Periapsis(deg)": 0.0012502735095955685,
        "Eccentricity": 0.0,
        "Inclination(deg)": 60.0,
        "Latitude(deg)": -7.8560279001575966,
        "Longitude(deg)": 44.980030647890366,
        "Mean Anomaly(deg)": -8.92232625445808,
        "RAAN(deg)": 149.9949594103231,
        "Satellite Name": "Test1 681",
        "Satellite Number": 681,
        "Semi-Major Axis(m)": 6980739.136638005,
        "Time(s)": 120
    },
    {
        "Altitude(m)": 606197.8790987125,
        "Argument of Periapsis(deg)": 0.0013544629687285324,
        "Eccentricity": 0.0,
        "Inclination(deg)": 60.0,
        "Latitude(deg)": -7.317458650335269,
        "Longitude(deg)": 45.25349481062881,
        "Mean Anomaly(deg)": -8.302220108996227,
        "RAAN(deg)": 149.99453936118334,
        "Satellite Name": "Test1 681",
        "Satellite Number": 681,
        "Semi-Major Axis(m)": 6980739.136638005,
        "Time(s)": 130
    },
    {
        "Altitude(m)": 606086.9796360425,
        "Argument of Periapsis(deg)": 0.0014586524278614966,
        "Eccentricity": 0.0,
        "Inclination(deg)": 60.0,
        "Latitude(deg)": -6.778643226810942,
        "Longitude(deg)": 45.526213360838874,
        "Mean Anomaly(deg)": -7.6821139635344,
        "RAAN(deg)": 149.9941193120436,
        "Satellite Name": "Test1 681",
        "Satellite Number": 681,
        "Semi-Major Axis(m)": 6980739.136638005,
        "Time(s)": 140
    },
    {
        "Altitude(m)": 605979.0769108683,
        "Argument of Periapsis(deg)": 0.0015628418869944607,
        "Eccentricity": 0.0,
        "Inclination(deg)": 60.0,
        "Latitude(deg)": -6.239599514386554,
        "Longitude(deg)": 45.79824332766283,
        "Mean Anomaly(deg)": -7.062007818072546,
        "RAAN(deg)": 149.99369926290387,
        "Satellite Name": "Test1 681",
        "Satellite Number": 681,
        "Semi-Major Axis(m)": 6980739.136638005,
        "Time(s)": 150
    },
    {
        "Altitude(m)": 605874.1974502692,
        "Argument of Periapsis(deg)": 0.0016670313461274247,
        "Eccentricity": 0.0,
        "Inclination(deg)": 60.0,
        "Latitude(deg)": -5.700345273087617,
        "Longitude(deg)": 46.0696418407319,
        "Mean Anomaly(deg)": -6.441901672610719,
        "RAAN(deg)": 149.99327921376414,
        "Satellite Name": "Test1 681",
        "Satellite Number": 681,
        "Semi-Major Axis(m)": 6980739.136638005,
        "Time(s)": 160
    },
    {
        "Altitude(m)": 605772.366317545,
        "Argument of Periapsis(deg)": 0.0017712208052603888,
        "Eccentricity": 0.0,
        "Inclination(deg)": 60.0,
        "Latitude(deg)": -5.160898148990318,
        "Longitude(deg)": 46.34046515550523,
        "Mean Anomaly(deg)": -5.821795527148968,
        "RAAN(deg)": 149.99285916462438,
        "Satellite Name": "Test1 681",
        "Satellite Number": 681,
        "Semi-Major Axis(m)": 6980739.136638005,
        "Time(s)": 170
    },
    {
        "Altitude(m)": 605673.6071027054,
        "Argument of Periapsis(deg)": 0.001875410264393353,
        "Eccentricity": 0.0,
        "Inclination(deg)": 60.0,
        "Latitude(deg)": -4.621275684890044,
        "Longitude(deg)": 46.61076919115638,
        "Mean Anomaly(deg)": -5.201689381687038,
        "RAAN(deg)": 149.99243911548464,
        "Satellite Name": "Test1 681",
        "Satellite Number": 681,
        "Semi-Major Axis(m)": 6980739.136638005,
        "Time(s)": 180
    },
    {
        "Altitude(m)": 605577.9419136953,
        "Argument of Periapsis(deg)": 0.0019795997235263173,
        "Eccentricity": 0.0,
        "Inclination(deg)": 60.0,
        "Latitude(deg)": -4.08149533082914,
        "Longitude(deg)": 46.88061006816222,
        "Mean Anomaly(deg)": -4.581583236225287,
        "RAAN(deg)": 149.9920190663449,
        "Satellite Name": "Test1 681",
        "Satellite Number": 681,
        "Semi-Major Axis(m)": 6980739.136638005,
        "Time(s)": 190
    }
]